[{"OBJECT_NAME":"QIANFAN-80","OBJECT_ID":"2025-046H","EPOCH":"2026-03-09T21:44:23.947008","MEAN_MOTION":13.50999558,"ECCENTRICITY":0.00119514,"INCLINATION":88.9752,"RA_OF_ASC_NODE":310.8022,"ARG_OF_PERICENTER":238.4861,"MEAN_ANOMALY":121.5124,"EPHEMERIS_TYPE":0,"CLASSIFICATION_TYPE":"U","NORAD_CAT_ID":63166,"ELEMENT_SET_NO":999,"REV_AT_EPOCH":5930,"BSTAR":0.00020039103,"MEAN_MOTION_DOT":1.41e-6,"MEAN_MOTION_DDOT":0},{"OBJECT_NAME":"NIMBUS 2 DEB","OBJECT_ID":"1966-040BP","EPOCH":"2026-03-06T00:33:07.459200","MEAN_MOTION":13.4593074,"ECCENTRICITY":0.00468681,"INCLINATION":100.3142,"RA_OF_ASC_NODE":271.861,"ARG_OF_PERICENTER":64.6445,"MEAN_ANOMALY":295.9528,"EPHEMERIS_TYPE":0,"CLASSIFICATION_TYPE":"U","NORAD_CAT_ID":42436,"ELEMENT_SET_NO":999,"REV_AT_EPOCH":52605,"BSTAR":0.003568477,"MEAN_MOTION_DOT":2.097e-5,"MEAN_MOTION_DDOT":0}]
